{
  "type": "FeatureCollection",
  "features": [
    {
      "type": "Feature",
      "properties": {
        "norad_id": 35915,
        "name": "IRIDIUM 33 DEB",
        "group": "iridium-33-debris",
        "lat": 79.52230820894115,
        "lon": 141.26541013734902,
        "alt_km": 617.3209305079317,
        "timestamp": "2025-12-15T22:44:29.315066+00:00",
        "meta_object_name": "IRIDIUM 33 DEB",
        "meta_object_id": "1997-051TY",
        "meta_epoch": "2025-12-15T06:04:26.011776",
        "meta_mean_motion": 14.80808039,
        "meta_eccentricity": 0.00111825,
        "meta_inclination": 86.344,
        "meta_ra_of_asc_node": 341.8094,
        "meta_arg_of_pericenter": 176.457,
        "meta_mean_anomaly": 183.6732,
        "meta_ephemeris_type": 0,
        "meta_classification_type": "U",
        "meta_norad_cat_id": 35915,
        "meta_element_set_no": 999,
        "meta_rev_at_epoch": 8123,
        "meta_bstar": 0.0011711062,
        "meta_mean_motion_dot": 9.065e-05,
        "meta_mean_motion_ddot": 0,
        "tle_line1": "1 35915U 97051TY  25349.25307884  .00009065  00000+0  11711-2 0  9997",
        "tle_line2": "2 35915  86.3440 341.8094 0011182 176.4570 183.6732 14.80808039 81237"
      },
      "geometry": {
        "type": "Point",
        "coordinates": [
          141.26541013734902,
          79.52230820894115
        ]
      }
    },
    {
      "type": "Feature",
      "properties": {
        "norad_id": 35918,
        "name": "IRIDIUM 33 DEB",
        "group": "iridium-33-debris",
        "lat": -84.09227001683074,
        "lon": 36.97644631607257,
        "alt_km": 737.3635824348521,
        "timestamp": "2025-12-15T22:44:29.315082+00:00",
        "meta_object_name": "IRIDIUM 33 DEB",
        "meta_object_id": "1997-051UB",
        "meta_epoch": "2025-12-13T00:32:30.278688",
        "meta_mean_motion": 14.51250424,
        "meta_eccentricity": 0.00275912,
        "meta_inclination": 86.401,
        "meta_ra_of_asc_node": 75.694,
        "meta_arg_of_pericenter": 168.7296,
        "meta_mean_anomaly": 313.6735,
        "meta_ephemeris_type": 0,
        "meta_classification_type": "U",
        "meta_norad_cat_id": 35918,
        "meta_element_set_no": 999,
        "meta_rev_at_epoch": 85211,
        "meta_bstar": 0.0017263949,
        "meta_mean_motion_dot": 6.917e-05,
        "meta_mean_motion_ddot": 0,
        "tle_line1": "1 35918U 97051UB  25347.02257267  .00006917  00000+0  17264-2 0  9994",
        "tle_line2": "2 35918  86.4010  75.6940 0027591 168.7296 313.6735 14.51250424852114"
      },
      "geometry": {
        "type": "Point",
        "coordinates": [
          36.97644631607257,
          -84.09227001683074
        ]
      }
    },
    {
      "type": "Feature",
      "properties": {
        "norad_id": 35929,
        "name": "IRIDIUM 33 DEB",
        "group": "iridium-33-debris",
        "lat": -76.0318835807945,
        "lon": 146.05474827529835,
        "alt_km": 574.145107118733,
        "timestamp": "2025-12-15T22:44:29.315099+00:00",
        "meta_object_name": "IRIDIUM 33 DEB",
        "meta_object_id": "1997-051UN",
        "meta_epoch": "2025-12-14T15:14:07.635840",
        "meta_mean_motion": 15.02568631,
        "meta_eccentricity": 0.0017869,
        "meta_inclination": 86.332,
        "meta_ra_of_asc_node": 311.7316,
        "meta_arg_of_pericenter": 31.461,
        "meta_mean_anomaly": 328.7688,
        "meta_ephemeris_type": 0,
        "meta_classification_type": "U",
        "meta_norad_cat_id": 35929,
        "meta_element_set_no": 999,
        "meta_rev_at_epoch": 87808,
        "meta_bstar": 0.0022504513,
        "meta_mean_motion_dot": 0.00030143,
        "meta_mean_motion_ddot": 0,
        "tle_line1": "1 35929U 97051UN  25348.63481060  .00030143  00000+0  22505-2 0  9996",
        "tle_line2": "2 35929  86.3320 311.7316 0017869  31.4610 328.7688 15.02568631878080"
      },
      "geometry": {
        "type": "Point",
        "coordinates": [
          146.05474827529835,
          -76.0318835807945
        ]
      }
    },
    {
      "type": "Feature",
      "properties": {
        "norad_id": 36011,
        "name": "IRIDIUM 33 DEB",
        "group": "iridium-33-debris",
        "lat": -30.147741560269438,
        "lon": -143.8230986068172,
        "alt_km": 747.6103644923833,
        "timestamp": "2025-12-15T22:44:29.315116+00:00",
        "meta_object_name": "IRIDIUM 33 DEB",
        "meta_object_id": "1997-051US",
        "meta_epoch": "2025-12-11T21:42:29.079072",
        "meta_mean_motion": 14.41326157,
        "meta_eccentricity": 0.0017563,
        "meta_inclination": 86.3411,
        "meta_ra_of_asc_node": 35.7829,
        "meta_arg_of_pericenter": 218.6873,
        "meta_mean_anomaly": 266.0791,
        "meta_ephemeris_type": 0,
        "meta_classification_type": "U",
        "meta_norad_cat_id": 36011,
        "meta_element_set_no": 999,
        "meta_rev_at_epoch": 64528,
        "meta_bstar": 0.00076231,
        "meta_mean_motion_dot": 2.489e-05,
        "meta_mean_motion_ddot": 0,
        "tle_line1": "1 36011U 97051US  25345.90450323  .00002489  00000+0  76231-3 0  9992",
        "tle_line2": "2 36011  86.3411  35.7829 0017563 218.6873 266.0791 14.41326157645287"
      },
      "geometry": {
        "type": "Point",
        "coordinates": [
          -143.8230986068172,
          -30.147741560269438
        ]
      }
    },
    {
      "type": "Feature",
      "properties": {
        "norad_id": 36012,
        "name": "IRIDIUM 33 DEB",
        "group": "iridium-33-debris",
        "lat": -57.64239515022384,
        "lon": 131.87864673930568,
        "alt_km": 688.1436148275498,
        "timestamp": "2025-12-15T22:44:29.315136+00:00",
        "meta_object_name": "IRIDIUM 33 DEB",
        "meta_object_id": "1997-051UT",
        "meta_epoch": "2025-12-14T15:08:58.717824",
        "meta_mean_motion": 14.19089098,
        "meta_eccentricity": 0.02115545,
        "meta_inclination": 86.4403,
        "meta_ra_of_asc_node": 306.7711,
        "meta_arg_of_pericenter": 257.0975,
        "meta_mean_anomaly": 100.6509,
        "meta_ephemeris_type": 0,
        "meta_classification_type": "U",
        "meta_norad_cat_id": 36012,
        "meta_element_set_no": 999,
        "meta_rev_at_epoch": 65511,
        "meta_bstar": 0.0046998938,
        "meta_mean_motion_dot": 0.00012304,
        "meta_mean_motion_ddot": 0,
        "tle_line1": "1 36012U 97051UT  25348.63123516  .00012304  00000+0  46999-2 0  9991",
        "tle_line2": "2 36012  86.4403 306.7711 0211554 257.0975 100.6509 14.19089098655115"
      },
      "geometry": {
        "type": "Point",
        "coordinates": [
          131.87864673930568,
          -57.64239515022384
        ]
      }
    },
    {
      "type": "Feature",
      "properties": {
        "norad_id": 36028,
        "name": "IRIDIUM 33 DEB",
        "group": "iridium-33-debris",
        "lat": 58.32559211167605,
        "lon": 119.20460508809849,
        "alt_km": 572.3115994281234,
        "timestamp": "2025-12-15T22:44:29.315155+00:00",
        "meta_object_name": "IRIDIUM 33 DEB",
        "meta_object_id": "1997-051VK",
        "meta_epoch": "2025-12-13T04:21:30.824928",
        "meta_mean_motion": 14.95340527,
        "meta_eccentricity": 0.00215137,
        "meta_inclination": 86.3216,
        "meta_ra_of_asc_node": 306.4905,
        "meta_arg_of_pericenter": 52.2095,
        "meta_mean_anomaly": 308.1078,
        "meta_ephemeris_type": 0,
        "meta_classification_type": "U",
        "meta_norad_cat_id": 36028,
        "meta_element_set_no": 999,
        "meta_rev_at_epoch": 87131,
        "meta_bstar": 0.0034254157,
        "meta_mean_motion_dot": 0.00038122,
        "meta_mean_motion_ddot": 0,
        "tle_line1": "1 36028U 97051VK  25347.18160677  .00038122  00000+0  34254-2 0  9993",
        "tle_line2": "2 36028  86.3216 306.4905 0021513  52.2095 308.1078 14.95340527871316"
      },
      "geometry": {
        "type": "Point",
        "coordinates": [
          119.20460508809849,
          58.32559211167605
        ]
      }
    },
    {
      "type": "Feature",
      "properties": {
        "norad_id": 36080,
        "name": "IRIDIUM 33 DEB",
        "group": "iridium-33-debris",
        "lat": 43.21316741231594,
        "lon": -176.87618642799217,
        "alt_km": 720.4422295923732,
        "timestamp": "2025-12-15T22:44:29.315166+00:00",
        "meta_object_name": "IRIDIUM 33 DEB",
        "meta_object_id": "1997-051VM",
        "meta_epoch": "2025-12-12T07:47:12.921504",
        "meta_mean_motion": 14.46603626,
        "meta_eccentricity": 0.0018143,
        "meta_inclination": 86.3202,
        "meta_ra_of_asc_node": 8.1679,
        "meta_arg_of_pericenter": 158.128,
        "meta_mean_anomaly": 202.0701,
        "meta_ephemeris_type": 0,
        "meta_classification_type": "U",
        "meta_norad_cat_id": 36080,
        "meta_element_set_no": 999,
        "meta_rev_at_epoch": 47408,
        "meta_bstar": 0.00097514146,
        "meta_mean_motion_dot": 3.542e-05,
        "meta_mean_motion_ddot": 0,
        "tle_line1": "1 36080U 97051VM  25346.32445511  .00003542  00000+0  97514-3 0  9996",
        "tle_line2": "2 36080  86.3202   8.1679 0018143 158.1280 202.0701 14.46603626474086"
      },
      "geometry": {
        "type": "Point",
        "coordinates": [
          -176.87618642799217,
          43.21316741231594
        ]
      }
    }
  ]
}